start=new Date('2022-08-27T00:00:00.000Z').valueOf();
sats=[{"PERIAPSIS":"546.212","REV_AT_EPOCH":"11003","OBJECT_ID":"2020-062AX","RCS_SIZE":"LARGE","COUNTRY_CODE":"US","TLE_LINE1":"1 46370U 20062AX  22238.85491411 -.00000037  00000-0  16424-4 0  9992","ARG_OF_PERICENTER":"85.5408","LAUNCH_DATE":"2020-09-03","BSTAR":"0.00001642400000","NORAD_CAT_ID":"46370","SEMIMAJOR_AXIS":"6925.355","MEAN_MOTION_DOT":"-0.00000037","OBJECT_NAME":"STARLINK-1670","INCLINATION":"53.0557","TLE_LINE2":"2 46370  53.0557  31.4031 0001455  85.5408 274.5747 15.06397960110031","GP_ID":"211076222","EPHEMERIS_TYPE":"0","RA_OF_ASC_NODE":"31.4031","MEAN_MOTION_DDOT":"0.0000000000000","MEAN_ELEMENT_THEORY":"SGP4","MEAN_ANOMALY":"274.5747","FILE":"3548620","SITE":"AFETR","DECAY_DATE":null,"ELEMENT_SET_NO":"999","PERIOD":"95.592","TIME_SYSTEM":"UTC","EPOCH":"2022-08-26T20:31:04.579104","CLASSIFICATION_TYPE":"U","MEAN_MOTION":"15.06397960","REF_FRAME":"TEME","ECCENTRICITY":"0.00014550","OBJECT_TYPE":"PAYLOAD","APOAPSIS":"548.227","CENTER_NAME":"EARTH"},{"APOAPSIS":"548.168","CENTER_NAME":"EARTH","OBJECT_TYPE":"PAYLOAD","ECCENTRICITY":"0.00013290","MEAN_MOTION":"15.06388870","REF_FRAME":"TEME","EPOCH":"2022-08-26T18:44:56.045472","CLASSIFICATION_TYPE":"U","TIME_SYSTEM":"UTC","ELEMENT_SET_NO":"999","PERIOD":"95.593","MEAN_ANOMALY":"279.0073","SITE":"AFETR","FILE":"3548485","DECAY_DATE":null,"MEAN_ELEMENT_THEORY":"SGP4","GP_ID":"211052491","EPHEMERIS_TYPE":"0","RA_OF_ASC_NODE":"31.7335","MEAN_MOTION_DDOT":"0.0000000000000","TLE_LINE2":"2 46371  53.0575  31.7335 0001329  81.1066 279.0073 15.06388870110205","SEMIMAJOR_AXIS":"6925.383","MEAN_MOTION_DOT":"0.00000262","INCLINATION":"53.0575","OBJECT_NAME":"STARLINK-1688","NORAD_CAT_ID":"46371","LAUNCH_DATE":"2020-09-03","BSTAR":"0.00003647500000","TLE_LINE1":"1 46371U 20062AY  22238.78120423  .00000262  00000-0  36475-4 0  9994","COUNTRY_CODE":"US","ARG_OF_PERICENTER":"81.1066","REV_AT_EPOCH":"11020","PERIAPSIS":"546.327","OBJECT_ID":"2020-062AY","RCS_SIZE":"LARGE"},{"ARG_OF_PERICENTER":"74.2321","COUNTRY_CODE":"US","TLE_LINE1":"1 46372U 20062AZ  22238.85675444  .00000641  00000-0  61955-4 0  9993","BSTAR":"0.00006195500000","LAUNCH_DATE":"2020-09-03","RCS_SIZE":"LARGE","PERIAPSIS":"546.295","OBJECT_ID":"2020-062AZ","REV_AT_EPOCH":"10975","TLE_LINE2":"2 46372  53.0556  51.3840 0001350  74.2321 285.8817 15.06394670109759","MEAN_MOTION_DDOT":"0.0000000000000","EPHEMERIS_TYPE":"0","RA_OF_ASC_NODE":"51.3840","GP_ID":"211074728","NORAD_CAT_ID":"46372","OBJECT_NAME":"STARLINK-1689","INCLINATION":"53.0556","MEAN_MOTION_DOT":"0.00000641","SEMIMAJOR_AXIS":"6925.365","PERIOD":"95.592","ELEMENT_SET_NO":"999","TIME_SYSTEM":"UTC","MEAN_ELEMENT_THEORY":"SGP4","FILE":"3548620","DECAY_DATE":null,"SITE":"AFETR","MEAN_ANOMALY":"285.8817","OBJECT_TYPE":"PAYLOAD","ECCENTRICITY":"0.00013500","CENTER_NAME":"EARTH","APOAPSIS":"548.165","CLASSIFICATION_TYPE":"U","EPOCH":"2022-08-26T20:33:43.583616","REF_FRAME":"TEME","MEAN_MOTION":"15.06394670"},{"MEAN_ELEMENT_THEORY":"SGP4","SITE":"AFETR","FILE":"3548620","DECAY_DATE":null,"MEAN_ANOMALY":"251.8976","PERIOD":"95.592","ELEMENT_SET_NO":"999","TIME_SYSTEM":"UTC","CLASSIFICATION_TYPE":"U","EPOCH":"2022-08-26T14:31:28.246656","REF_FRAME":"TEME","MEAN_MOTION":"15.06405728","ECCENTRICITY":"0.00013380","OBJECT_TYPE":"PAYLOAD","CENTER_NAME":"EARTH","APOAPSIS":"548.123","RCS_SIZE":"LARGE","PERIAPSIS":"546.269","REV_AT_EPOCH":"11069","OBJECT_ID":"2020-062BB","ARG_OF_PERICENTER":"108.2158","COUNTRY_CODE":"US","TLE_LINE1":"1 46374U 20062BB  22238.60518804  .00001000  00000-0  86024-4 0  9998","BSTAR":"0.00008602400000","LAUNCH_DATE":"2020-09-03","NORAD_CAT_ID":"46374","INCLINATION":"53.0553","OBJECT_NAME":"STARLINK-1711","MEAN_MOTION_DOT":"0.00001000","SEMIMAJOR_AXIS":"6925.331","TLE_LINE2":"2 46374  53.0553 342.5279 0001338 108.2158 251.8976 15.06405728110692","MEAN_MOTION_DDOT":"0.0000000000000","RA_OF_ASC_NODE":"342.5279","EPHEMERIS_TYPE":"0","GP_ID":"211075979"},{"NORAD_CAT_ID":"46375","OBJECT_NAME":"STARLINK-1724","INCLINATION":"53.0518","MEAN_MOTION_DOT":"-0.00006334","SEMIMAJOR_AXIS":"6925.338","TLE_LINE2":"2 46375  53.0518   6.8519 0002510  74.6625 285.4641 15.06403594110364","MEAN_MOTION_DDOT":"0.0000000000000","RA_OF_ASC_NODE":"6.8519","EPHEMERIS_TYPE":"0","GP_ID":"211075722","RCS_SIZE":"LARGE","REV_AT_EPOCH":"11036","PERIAPSIS":"545.464","OBJECT_ID":"2020-062BC","ARG_OF_PERICENTER":"74.6625","COUNTRY_CODE":"US","TLE_LINE1":"1 46375U 20062BC  22238.75219818 -.00006334  00000-0 -40663-3 0  9993","BSTAR":"-0.00040663000000","LAUNCH_DATE":"2020-09-03","CLASSIFICATION_TYPE":"U","EPOCH":"2022-08-26T18:03:09.922752","MEAN_MOTION":"15.06403594","REF_FRAME":"TEME","OBJECT_TYPE":"PAYLOAD","ECCENTRICITY":"0.00025100","CENTER_NAME":"EARTH","APOAPSIS":"548.941","MEAN_ELEMENT_THEORY":"SGP4","FILE":"3548620","SITE":"AFETR","DECAY_DATE":null,"MEAN_ANOMALY":"285.4641","PERIOD":"95.592","ELEMENT_SET_NO":"999","TIME_SYSTEM":"UTC"},{"TIME_SYSTEM":"UTC","ELEMENT_SET_NO":"999","PERIOD":"95.592","DECAY_DATE":null,"FILE":"3548620","SITE":"AFETR","MEAN_ANOMALY":"261.7523","MEAN_ELEMENT_THEORY":"SGP4","APOAPSIS":"548.209","CENTER_NAME":"EARTH","OBJECT_TYPE":"PAYLOAD","ECCENTRICITY":"0.00014170","REF_FRAME":"TEME","MEAN_MOTION":"15.06395368","EPOCH":"2022-08-26T18:24:21.347136","CLASSIFICATION_TYPE":"U","BSTAR":"0.00000264970000","LAUNCH_DATE":"2020-09-03","TLE_LINE1":"1 46376U 20062BD  22238.76691374 -.00000242  00000-0  26497-5 0  9998","COUNTRY_CODE":"US","ARG_OF_PERICENTER":"98.3627","PERIAPSIS":"546.246","REV_AT_EPOCH":"11036","OBJECT_ID":"2020-062BD","RCS_SIZE":"LARGE","GP_ID":"211074979","MEAN_MOTION_DDOT":"0.0000000000000","EPHEMERIS_TYPE":"0","RA_OF_ASC_NODE":"6.8023","TLE_LINE2":"2 46376  53.0560   6.8023 0001417  98.3627 261.7523 15.06395368110367","MEAN_MOTION_DOT":"-0.00000242","SEMIMAJOR_AXIS":"6925.363","INCLINATION":"53.0560","OBJECT_NAME":"STARLINK-1742","NORAD_CAT_ID":"46376"},{"NORAD_CAT_ID":"46380","MEAN_MOTION_DOT":"0.00001413","SEMIMAJOR_AXIS":"6925.348","OBJECT_NAME":"STARLINK-1758","INCLINATION":"53.0550","TLE_LINE2":"2 46380  53.0550  31.9619 0001382  90.0051 270.1097 15.06400083110015","GP_ID":"211075228","MEAN_MOTION_DDOT":"0.0000000000000","RA_OF_ASC_NODE":"31.9619","EPHEMERIS_TYPE":"0","PERIAPSIS":"546.256","REV_AT_EPOCH":"11001","OBJECT_ID":"2020-062BH","RCS_SIZE":"LARGE","TLE_LINE1":"1 46380U 20062BH  22238.73327150  .00001413  00000-0  11374-3 0  9994","COUNTRY_CODE":"US","ARG_OF_PERICENTER":"90.0051","BSTAR":"0.00011374000000","LAUNCH_DATE":"2020-09-03","EPOCH":"2022-08-26T17:35:54.657600","CLASSIFICATION_TYPE":"U","REF_FRAME":"TEME","MEAN_MOTION":"15.06400083","OBJECT_TYPE":"PAYLOAD","ECCENTRICITY":"0.00013820","APOAPSIS":"548.170","CENTER_NAME":"EARTH","MEAN_ELEMENT_THEORY":"SGP4","FILE":"3548620","SITE":"AFETR","DECAY_DATE":null,"MEAN_ANOMALY":"270.1097","ELEMENT_SET_NO":"999","PERIOD":"95.592","TIME_SYSTEM":"UTC"},{"PERIAPSIS":"546.300","OBJECT_ID":"2020-062BK","REV_AT_EPOCH":"11038","RCS_SIZE":"LARGE","TLE_LINE1":"1 46382U 20062BK  22238.84800731  .00000957  00000-0  83128-4 0  9998","COUNTRY_CODE":"US","ARG_OF_PERICENTER":"77.5513","LAUNCH_DATE":"2020-09-03","BSTAR":"0.00008312800000","NORAD_CAT_ID":"46382","SEMIMAJOR_AXIS":"6925.364","MEAN_MOTION_DOT":"0.00000957","OBJECT_NAME":"STARLINK-1769","INCLINATION":"53.0565","TLE_LINE2":"2 46382  53.0565   6.4458 0001341  77.5513 282.5626 15.06394911110386","GP_ID":"211075479","EPHEMERIS_TYPE":"0","RA_OF_ASC_NODE":"6.4458","MEAN_MOTION_DDOT":"0.0000000000000","MEAN_ELEMENT_THEORY":"SGP4","MEAN_ANOMALY":"282.5626","SITE":"AFETR","FILE":"3548620","DECAY_DATE":null,"ELEMENT_SET_NO":"999","PERIOD":"95.592","TIME_SYSTEM":"UTC","EPOCH":"2022-08-26T20:21:07.831584","CLASSIFICATION_TYPE":"U","REF_FRAME":"TEME","MEAN_MOTION":"15.06394911","ECCENTRICITY":"0.00013410","OBJECT_TYPE":"PAYLOAD","APOAPSIS":"548.158","CENTER_NAME":"EARTH"},{"OBJECT_TYPE":"PAYLOAD","ECCENTRICITY":"0.00015960","CENTER_NAME":"EARTH","APOAPSIS":"548.320","CLASSIFICATION_TYPE":"U","EPOCH":"2022-08-26T18:26:20.953248","MEAN_MOTION":"15.06399567","REF_FRAME":"TEME","PERIOD":"95.592","ELEMENT_SET_NO":"999","TIME_SYSTEM":"UTC","MEAN_ELEMENT_THEORY":"SGP4","DECAY_DATE":null,"FILE":"3548620","SITE":"AFETR","MEAN_ANOMALY":"291.3261","TLE_LINE2":"2 46383  53.0564  51.8064 0001596  68.7898 291.3261 15.06399567109735","MEAN_MOTION_DDOT":"0.0000000000000","RA_OF_ASC_NODE":"51.8064","EPHEMERIS_TYPE":"0","GP_ID":"211076223","NORAD_CAT_ID":"46383","OBJECT_NAME":"STARLINK-1770","INCLINATION":"53.0564","MEAN_MOTION_DOT":"-0.00000844","SEMIMAJOR_AXIS":"6925.350","ARG_OF_PERICENTER":"68.7898","COUNTRY_CODE":"US","TLE_LINE1":"1 46383U 20062BL  22238.76829807 -.00000844  00000-0 -37734-4 0  9994","BSTAR":"-0.00003773400000","LAUNCH_DATE":"2020-09-03","RCS_SIZE":"LARGE","PERIAPSIS":"546.110","OBJECT_ID":"2020-062BL","REV_AT_EPOCH":"10973"},{"RCS_SIZE":"LARGE","PERIAPSIS":"546.247","REV_AT_EPOCH":"10975","OBJECT_ID":"2020-062BM","ARG_OF_PERICENTER":"92.8421","TLE_LINE1":"1 46384U 20062BM  22238.90467641 -.00000293  00000-0 -79763-6 0  9993","COUNTRY_CODE":"US","BSTAR":"-0.00000079763000","LAUNCH_DATE":"2020-09-03","NORAD_CAT_ID":"46384","INCLINATION":"53.0543","OBJECT_NAME":"STARLINK-1771","MEAN_MOTION_DOT":"-0.00000293","SEMIMAJOR_AXIS":"6925.358","TLE_LINE2":"2 46384  53.0543  51.1807 0001409  92.8421 267.2730 15.06397043109756","MEAN_MOTION_DDOT":"0.0000000000000","EPHEMERIS_TYPE":"0","RA_OF_ASC_NODE":"51.1807","GP_ID":"211074480","MEAN_ELEMENT_THEORY":"SGP4","FILE":"3548620","SITE":"AFETR","DECAY_DATE":null,"MEAN_ANOMALY":"267.2730","PERIOD":"95.592","ELEMENT_SET_NO":"999","TIME_SYSTEM":"UTC","CLASSIFICATION_TYPE":"U","EPOCH":"2022-08-26T21:42:44.041824","REF_FRAME":"TEME","MEAN_MOTION":"15.06397043","ECCENTRICITY":"0.00014090","OBJECT_TYPE":"PAYLOAD","CENTER_NAME":"EARTH","APOAPSIS":"548.198"}];
